[{"OBJECT_NAME":"JILIN-1 06","OBJECT_ID":"2017-074C","EPOCH":"2026-03-09T22:46:57.173376","MEAN_MOTION":15.32444387,"ECCENTRICITY":0.00061285,"INCLINATION":97.4715,"RA_OF_ASC_NODE":171.0354,"ARG_OF_PERICENTER":223.0031,"MEAN_ANOMALY":137.0732,"EPHEMERIS_TYPE":0,"CLASSIFICATION_TYPE":"U","NORAD_CAT_ID":43024,"ELEMENT_SET_NO":999,"REV_AT_EPOCH":45863,"BSTAR":0.00028431628,"MEAN_MOTION_DOT":8.833e-5,"MEAN_MOTION_DDOT":0},{"OBJECT_NAME":"STARLINK-33681","OBJECT_ID":"2025-069F","EPOCH":"2026-03-09T11:43:45.083136","MEAN_MOTION":15.30193084,"ECCENTRICITY":0.00012402,"INCLINATION":53.1578,"RA_OF_ASC_NODE":143.4356,"ARG_OF_PERICENTER":73.8719,"MEAN_ANOMALY":286.2418,"EPHEMERIS_TYPE":0,"CLASSIFICATION_TYPE":"U","NORAD_CAT_ID":63438,"ELEMENT_SET_NO":999,"REV_AT_EPOCH":5337,"BSTAR":0.00077010313,"MEAN_MOTION_DOT":0.00022513,"MEAN_MOTION_DDOT":0}]
